{
  "type": "FeatureCollection",
  "features": [
    {
      "type": "Feature",
      "properties": {
        "norad_id": 39773,
        "name": "EUTELSAT 3B",
        "group": "eutelsat",
        "lat": -0.06311155481747188,
        "lon": -56.87334920962944,
        "alt_km": 35779.116526198595,
        "timestamp": "2025-12-27T13:34:48.961262+00:00",
        "meta_object_name": "EUTELSAT 3B",
        "meta_object_id": "2014-030A",
        "meta_epoch": "2025-12-27T06:13:38.544960",
        "meta_mean_motion": 1.00270423,
        "meta_eccentricity": 0.00042878,
        "meta_inclination": 0.06,
        "meta_ra_of_asc_node": 354.4554,
        "meta_arg_of_pericenter": 242.3493,
        "meta_mean_anomaly": 315.6906,
        "meta_ephemeris_type": 0,
        "meta_classification_type": "U",
        "meta_norad_cat_id": 39773,
        "meta_element_set_no": 999,
        "meta_rev_at_epoch": 4234,
        "meta_bstar": 0,
        "meta_mean_motion_dot": 4.2e-07,
        "meta_mean_motion_ddot": 0,
        "tle_line1": "1 39773U 14030A   25361.25947390  .00000042  00000+0  00000+0 0  9997",
        "tle_line2": "2 39773   0.0600 354.4554 0004287 242.3493 315.6906  1.00270423 42347"
      },
      "geometry": {
        "type": "Point",
        "coordinates": [
          -56.87334920962944,
          -0.06311155481747188
        ]
      }
    },
    {
      "type": "Feature",
      "properties": {
        "norad_id": 40425,
        "name": "EUTELSAT 115 WEST B",
        "group": "eutelsat",
        "lat": 0.0006348864475310839,
        "lon": -174.9061510574915,
        "alt_km": 35785.77198640643,
        "timestamp": "2025-12-27T13:34:48.961275+00:00",
        "meta_object_name": "EUTELSAT 115 WEST B",
        "meta_object_id": "2015-010B",
        "meta_epoch": "2025-12-26T05:44:38.581152",
        "meta_mean_motion": 1.00273604,
        "meta_eccentricity": 7.8e-06,
        "meta_inclination": 0.0077,
        "meta_ra_of_asc_node": 147.8651,
        "meta_arg_of_pericenter": 258.8043,
        "meta_mean_anomaly": 19.571,
        "meta_ephemeris_type": 0,
        "meta_classification_type": "U",
        "meta_norad_cat_id": 40425,
        "meta_element_set_no": 999,
        "meta_rev_at_epoch": 3965,
        "meta_bstar": 0,
        "meta_mean_motion_dot": -3e-08,
        "meta_mean_motion_ddot": 0,
        "tle_line1": "1 40425U 15010B   25360.23933543 -.00000003  00000+0  00000+0 0  9992",
        "tle_line2": "2 40425   0.0077 147.8651 0000078 258.8043  19.5710  1.00273604 39657"
      },
      "geometry": {
        "type": "Point",
        "coordinates": [
          -174.9061510574915,
          0.0006348864475310839
        ]
      }
    },
    {
      "type": "Feature",
      "properties": {
        "norad_id": 40875,
        "name": "EUTELSAT 8 WEST B",
        "group": "eutelsat",
        "lat": -0.08337870201188857,
        "lon": -67.99938325355177,
        "alt_km": 35769.081918569995,
        "timestamp": "2025-12-27T13:34:48.961287+00:00",
        "meta_object_name": "EUTELSAT 8 WEST B",
        "meta_object_id": "2015-039B",
        "meta_epoch": "2025-12-27T06:06:52.392384",
        "meta_mean_motion": 1.00271434,
        "meta_eccentricity": 0.00041959,
        "meta_inclination": 0.0657,
        "meta_ra_of_asc_node": 13.5765,
        "meta_arg_of_pericenter": 262.8857,
        "meta_mean_anomaly": 263.2409,
        "meta_ephemeris_type": 0,
        "meta_classification_type": "U",
        "meta_norad_cat_id": 40875,
        "meta_element_set_no": 999,
        "meta_rev_at_epoch": 3793,
        "meta_bstar": 0,
        "meta_mean_motion_dot": -4.3e-07,
        "meta_mean_motion_ddot": 0,
        "tle_line1": "1 40875U 15039B   25361.25477306 -.00000043  00000+0  00000+0 0  9999",
        "tle_line2": "2 40875   0.0657  13.5765 0004195 262.8857 263.2409  1.00271434 37938"
      },
      "geometry": {
        "type": "Point",
        "coordinates": [
          -67.99938325355177,
          -0.08337870201188857
        ]
      }
    },
    {
      "type": "Feature",
      "properties": {
        "norad_id": 41310,
        "name": "EUTELSAT 9B",
        "group": "eutelsat",
        "lat": -0.043852985345275534,
        "lon": -50.99147761738929,
        "alt_km": 35769.60558571216,
        "timestamp": "2025-12-27T13:34:48.961299+00:00",
        "meta_object_name": "EUTELSAT 9B",
        "meta_object_id": "2016-005A",
        "meta_epoch": "2025-12-27T06:13:38.544960",
        "meta_mean_motion": 1.00270104,
        "meta_eccentricity": 0.00047693,
        "meta_inclination": 0.0298,
        "meta_ra_of_asc_node": 51.1117,
        "meta_arg_of_pericenter": 224.8876,
        "meta_mean_anomaly": 282.3931,
        "meta_ephemeris_type": 0,
        "meta_classification_type": "U",
        "meta_norad_cat_id": 41310,
        "meta_element_set_no": 999,
        "meta_rev_at_epoch": 3639,
        "meta_bstar": 0,
        "meta_mean_motion_dot": 8.4e-07,
        "meta_mean_motion_ddot": 0,
        "tle_line1": "1 41310U 16005A   25361.25947390  .00000084  00000+0  00000+0 0  9997",
        "tle_line2": "2 41310   0.0298  51.1117 0004769 224.8876 282.3931  1.00270104 36393"
      },
      "geometry": {
        "type": "Point",
        "coordinates": [
          -50.99147761738929,
          -0.043852985345275534
        ]
      }
    },
    {
      "type": "Feature",
      "properties": {
        "norad_id": 41382,
        "name": "EUTELSAT 65 WEST A",
        "group": "eutelsat",
        "lat": -0.05696351748551545,
        "lon": -125.21137112481203,
        "alt_km": 35779.12242317608,
        "timestamp": "2025-12-27T13:34:48.961311+00:00",
        "meta_object_name": "EUTELSAT 65 WEST A",
        "meta_object_id": "2016-014A",
        "meta_epoch": "2025-12-27T06:13:45.229728",
        "meta_mean_motion": 1.0027075,
        "meta_eccentricity": 0.00024248,
        "meta_inclination": 0.047,
        "meta_ra_of_asc_node": 349.7088,
        "meta_arg_of_pericenter": 289.8289,
        "meta_mean_anomaly": 204.7118,
        "meta_ephemeris_type": 0,
        "meta_classification_type": "U",
        "meta_norad_cat_id": 41382,
        "meta_element_set_no": 999,
        "meta_rev_at_epoch": 3581,
        "meta_bstar": 0,
        "meta_mean_motion_dot": -2.54e-06,
        "meta_mean_motion_ddot": 0,
        "tle_line1": "1 41382U 16014A   25361.25955127 -.00000254  00000+0  00000+0 0  9993",
        "tle_line2": "2 41382   0.0470 349.7088 0002424 289.8289 204.7118  1.00270750 35810"
      },
      "geometry": {
        "type": "Point",
        "coordinates": [
          -125.21137112481203,
          -0.05696351748551545
        ]
      }
    },
    {
      "type": "Feature",
      "properties": {
        "norad_id": 41589,
        "name": "EUTELSAT 117 WEST B",
        "group": "eutelsat",
        "lat": 0.00044486171685425804,
        "lon": -177.0117741863597,
        "alt_km": 35785.936878228946,
        "timestamp": "2025-12-27T13:34:48.961322+00:00",
        "meta_object_name": "EUTELSAT 117 WEST B",
        "meta_object_id": "2016-038B",
        "meta_epoch": "2025-12-27T05:35:47.867424",
        "meta_mean_motion": 1.00273402,
        "meta_eccentricity": 7.7e-06,
        "meta_inclination": 0.0096,
        "meta_ra_of_asc_node": 156.0501,
        "meta_arg_of_pericenter": 198.0121,
        "meta_mean_anomaly": 68.8491,
        "meta_ephemeris_type": 0,
        "meta_classification_type": "U",
        "meta_norad_cat_id": 41589,
        "meta_element_set_no": 999,
        "meta_rev_at_epoch": 3493,
        "meta_bstar": 0,
        "meta_mean_motion_dot": 1.1e-07,
        "meta_mean_motion_ddot": 0,
        "tle_line1": "1 41589U 16038B   25361.23319291  .00000011  00000+0  00000+0 0  9992",
        "tle_line2": "2 41589   0.0096 156.0501 0000077 198.0121  68.8491  1.00273402 34932"
      },
      "geometry": {
        "type": "Point",
        "coordinates": [
          -177.0117741863597,
          0.00044486171685425804
        ]
      }
    },
    {
      "type": "Feature",
      "properties": {
        "norad_id": 42741,
        "name": "EUTELSAT 172B",
        "group": "eutelsat",
        "lat": 0.004886668712569676,
        "lon": 111.98382206857063,
        "alt_km": 35786.43524314141,
        "timestamp": "2025-12-27T13:34:48.961334+00:00",
        "meta_object_name": "EUTELSAT 172B",
        "meta_object_id": "2017-029B",
        "meta_epoch": "2025-12-27T04:00:38.552832",
        "meta_mean_motion": 1.00270223,
        "meta_eccentricity": 1.134e-05,
        "meta_inclination": 0.0381,
        "meta_ra_of_asc_node": 160.9099,
        "meta_arg_of_pericenter": 32.6736,
        "meta_mean_anomaly": 134.4747,
        "meta_ephemeris_type": 0,
        "meta_classification_type": "U",
        "meta_norad_cat_id": 42741,
        "meta_element_set_no": 999,
        "meta_rev_at_epoch": 3200,
        "meta_bstar": 0,
        "meta_mean_motion_dot": 1.7e-07,
        "meta_mean_motion_ddot": 0,
        "tle_line1": "1 42741U 17029B   25361.16711288  .00000017  00000+0  00000+0 0  9994",
        "tle_line2": "2 42741   0.0381 160.9099 0000113  32.6736 134.4747  1.00270223 32000"
      },
      "geometry": {
        "type": "Point",
        "coordinates": [
          111.98382206857063,
          0.004886668712569676
        ]
      }
    }
  ]
}